#aV2023  8 28  0  0  0.00000000     288 DD+AD WGS84 FIT  NGA
## 2277  86400.00000000   300.00000000 60184 0.0000000000000
+   31     1  2  3  4  5  6  7  8  9 10 11 12 13 14 15 16 17
+         18 19 20 21 22 23 24 25 26 27 29 30 31 32  0  0  0
+          0  0  0  0  0  0  0  0  0  0  0  0  0  0  0  0  0
+          0  0  0  0  0  0  0  0  0  0  0  0  0  0  0  0  0
+          0  0  0  0  0  0  0  0  0  0  0  0  0  0  0  0  0
++         2  2  2  2  2  2  2  2  2  2  2  2  2  2  2  2  2
++         2  2  2  2  2  2  2  2  2  2  2  2  2  2  0  0  0
++         0  0  0  0  0  0  0  0  0  0  0  0  0  0  0  0  0
++         0  0  0  0  0  0  0  0  0  0  0  0  0  0  0  0  0
++         0  0  0  0  0  0  0  0  0  0  0  0  0  0  0  0  0
%c cc cc ccc ccc cccc cccc cccc cccc ccccc ccccc ccccc ccccc
%c cc cc ccc ccc cccc cccc cccc cccc ccccc ccccc ccccc ccccc
%f  0.0000000  0.000000000  0.00000000000  0.000000000000000
%f  0.0000000  0.000000000  0.00000000000  0.000000000000000
%i    0    0    0    0      0      0      0      0         0
%i    0    0    0    0      0      0      0      0         0
/*      NGA, ST. LOUIS,MO.                                  
/*   EPHEMERIS COMPUTED FROM 2 DAYS OF DATA                 
/*   EPOCHA v8 SMOOTHER                                     
/*   G2139 IERS2010 SATIGS SATAPC                           
*  2023  8 28 14 50  0.00000000
P  1   5821.232088  13945.983403 -22218.172071    167.057253                    
V  1 -27032.539127   3552.638390  -4601.485766     -0.011990                    
P  2  -2012.691054  15351.094186 -21054.625592   -560.436762                    
V  2 -27363.114262   5641.531180   6738.498223      0.042719                    
P  3  11565.310152  22810.435498  -7523.468248   -164.805123                    
V  3  -7304.244922  -6095.407963 -30186.632854      0.190390                    
P  4   2349.118008  21413.571301  15465.139487    139.252279                    
V  4  -9719.708047  17209.832829 -22483.671162      0.113596                    
P  5    980.923912 -18571.104375  18740.771242   -140.547224                    
V  5  16959.364103  17322.184486  16218.135387     -0.014828                    
P  6  25833.875935  -5598.657927   3132.549440    559.654030                    
V  6   4087.819890   1260.162372 -31993.539294     -0.058977                    
P  7  21421.901279   7477.232844  14659.601374     83.022817                    
V  7 -17193.199995   4391.390243  23176.162005     -0.106702                    
P  8  -4799.181003  25250.372612  -5877.888271   -139.422368                    
V  8  -5501.405703   5931.514645  30743.982683     -0.017969                    
P  9   9936.139138  14030.118164  20151.122996    -74.816779                    
V  9 -10022.695447  23793.525190 -11623.089249      0.100124                    
P 10 -19135.981319  -5013.713095 -17700.463230    -51.111037                    
V 10 -13156.599270 -18494.874545  18954.061041     -0.015225                    
P 11  17878.567098 -12331.716616  15264.356823   -341.842666                    
V 11  19469.247881     63.803574 -22815.764303     -0.177999                    
P 12  -6861.095684 -23409.997110 -10867.977389   -418.223699                    
V 12   9381.699256   9772.653985 -27601.587766     -0.044535                    
P 13  13307.013336 -22842.611517    403.499437    565.695384                    
V 13   1974.909112   1980.129522  32108.330710      0.046242                    
P 14  19995.576451   8148.646951 -15553.091423    167.876415                    
V 14  10069.674201  17136.076489  21726.901740      0.115321                    
P 15    828.869702 -25613.369299  -6953.482083     72.086030                    
V 15   5439.631073  -7243.242069  29596.333123      0.036292                    
P 16  -7157.251801  14889.136511  20386.195309   -462.152051                    
V 16 -15630.548054 -21666.655781  10624.888269      0.052070                    
P 17  16644.378814  -3371.336058 -20017.627991    723.259966                    
V 17 -10328.258983  24233.565298 -12296.541843      0.003428                    
P 18 -22843.074118  -5629.765532  12499.674492   -398.250394                    
V 18  15417.573424  -3835.720114  26278.376776     -0.130265                    
P 19  18116.635704 -10597.396212 -16275.823703    363.815648                    
V 19  -7903.875517  18886.175866 -21691.309155      0.051479                    
P 20  10367.494749 -11490.126772  21620.314504    414.833486                    
V 20  20344.725161  18370.062657   -179.427889     -0.020029                    
P 21  -4140.709853  15591.749677 -20385.988197    149.965447                    
V 21 -26881.770375   4996.607910   9928.745353     -0.006746                    
P 22  17140.258097   1180.089836 -19715.620278    132.849063                    
V 22  13159.692490  22618.514331  12770.340500     -0.074712                    
P 23 -20150.610937 -15413.136076  -8152.511475     60.843003                    
V 23  -5032.399665  -9216.319478  29677.835400      0.049326                    
P 24  -1467.759848 -15996.178989 -21498.702361   -303.216999                    
V 24  25947.057618  -5732.058998   2961.897854     -0.111440                    
P 25 -17401.880931 -20212.411280   1048.337918    464.704692                    
V 25   1164.976818  -3135.551952 -31347.207844      0.020999                    
P 26 -15234.718466   6183.457385  20790.520486    231.079340                    
V 26 -17555.237000 -20164.123434  -6478.111690     -0.016416                    
P 27 -12794.987176  22304.826824   5462.340302    -29.931814                    
V 27    -59.259705  -7902.252816  31120.546612     -0.065486                    
P 29  -8287.584017 -14638.702843  20480.637134   -608.543931                    
V 29  12264.786790 -23053.196064 -11588.594331     -0.005672                    
P 30  26093.460145    623.690300   5752.091206   -492.694299                    
V 30  -6604.039385   4200.520787  29879.101241      0.032101                    
P 31 -22244.167444  10297.293428  10554.802072   -222.542618                    
V 31 -13733.060798   -680.682700 -27377.665523     -0.005741                    
P 32 -16983.358982   8039.200569 -18509.310905   -548.527235                    
V 32   7122.284938 -22925.226725 -16532.565112     -0.065243                    
EOF
